ONEWEB-0235             
1 48771U 21045E   25314.46347248 -.00000074  00000+0 -23088-3 0  9998
2 48771  87.8957 302.8303 0002313  96.0030 264.1364 13.15550581215625
ONEWEB-0242             
1 48772U 21045F   25314.91348951 -.00000013  00000+0 -68016-4 0  9995
2 48772  87.8969 302.7315 0001905  94.3109 265.8239 13.15549996215723
ONEWEB-0241             
1 48773U 21045G   25314.97687122  .00000032  00000+0  50598-4 0  9993
2 48773  87.8959 302.7596 0002322  87.5129 272.6267 13.15550912215642
ONEWEB-0243             
1 48774U 21045H   25314.70430952  .00000062  00000+0  13064-3 0  9991
2 48774  87.8963 302.8219 0002118  99.0064 261.1306 13.15544760215630
ONEWEB-0222             
1 48775U 21045J   25314.91585009 -.00000005  00000+0 -46788-4 0  9998
2 48775  87.8968 302.7315 0002035  90.1604 269.9760 13.15550901215704
ONEWEB-0244             
1 48776U 21045K   25314.94201245  .00000061  00000+0  12849-3 0  9999
2 48776  87.8968 302.7120 0001954  92.1638 267.9716 13.15549190216277
ONEWEB-0247             
1 48777U 21045L   25314.93883358  .00000028  00000+0  39010-4 0  9993
2 48777  87.8955 302.7746 0002617 105.2083 254.9337 13.15550028215710
ONEWEB-0245             
1 48778U 21045M   25314.93407164 -.00000313  00000+0 -86684-3 0  9998
2 48778  87.8960 302.7394 0002119  86.0909 274.0464 13.15548054215682
